[{"OBJECT_NAME":"NUSAT-44 (MARIA MITCHELL)","OBJECT_ID":"2024-043AA","EPOCH":"2026-03-09T22:12:18.524160","MEAN_MOTION":15.29764305,"ECCENTRICITY":0.0007331,"INCLINATION":97.5299,"RA_OF_ASC_NODE":207.7691,"ARG_OF_PERICENTER":214.9017,"MEAN_ANOMALY":145.1743,"EPHEMERIS_TYPE":0,"CLASSIFICATION_TYPE":"U","NORAD_CAT_ID":59122,"ELEMENT_SET_NO":999,"REV_AT_EPOCH":11209,"BSTAR":0.00061063193,"MEAN_MOTION_DOT":0.00017562,"MEAN_MOTION_DDOT":0},{"OBJECT_NAME":"STARLINK-31941","OBJECT_ID":"2024-098J","EPOCH":"2026-03-09T22:17:11.792544","MEAN_MOTION":15.27472993,"ECCENTRICITY":9.216e-5,"INCLINATION":43.0008,"RA_OF_ASC_NODE":258.9013,"ARG_OF_PERICENTER":193.9113,"MEAN_ANOMALY":166.1713,"EPHEMERIS_TYPE":0,"CLASSIFICATION_TYPE":"U","NORAD_CAT_ID":59866,"ELEMENT_SET_NO":999,"REV_AT_EPOCH":10208,"BSTAR":0.00077490113,"MEAN_MOTION_DOT":0.00021053,"MEAN_MOTION_DDOT":0}]
